[{"OBJECT_NAME":"ONEWEB-0035","OBJECT_ID":"2020-008N","EPOCH":"2025-12-13T07:20:17.522304","MEAN_MOTION":13.10375027,"ECCENTRICITY":0.0001601,"INCLINATION":87.8805,"RA_OF_ASC_NODE":73.3414,"ARG_OF_PERICENTER":99.6474,"MEAN_ANOMALY":260.4834,"EPHEMERIS_TYPE":0,"CLASSIFICATION_TYPE":"U","NORAD_CAT_ID":45143,"ELEMENT_SET_NO":999,"REV_AT_EPOCH":28359,"BSTAR":0.0017513573,"MEAN_MOTION_DOT":6.24e-6,"MEAN_MOTION_DDOT":0},{"OBJECT_NAME":"ONEWEB-0036","OBJECT_ID":"2020-008P","EPOCH":"2025-12-13T07:05:56.630112","MEAN_MOTION":13.1037518,"ECCENTRICITY":0.00018174,"INCLINATION":87.8817,"RA_OF_ASC_NODE":73.3018,"ARG_OF_PERICENTER":113.016,"MEAN_ANOMALY":247.1159,"EPHEMERIS_TYPE":0,"CLASSIFICATION_TYPE":"U","NORAD_CAT_ID":45144,"ELEMENT_SET_NO":999,"REV_AT_EPOCH":28402,"BSTAR":0.00062844021,"MEAN_MOTION_DOT":2.32e-6,"MEAN_MOTION_DDOT":0},{"OBJECT_NAME":"ONEWEB-0038","OBJECT_ID":"2020-008Q","EPOCH":"2025-12-13T05:36:25.656192","MEAN_MOTION":13.11415504,"ECCENTRICITY":0.00031218,"INCLINATION":87.8868,"RA_OF_ASC_NODE":58.0911,"ARG_OF_PERICENTER":79.5663,"MEAN_ANOMALY":280.5817,"EPHEMERIS_TYPE":0,"CLASSIFICATION_TYPE":"U","NORAD_CAT_ID":45145,"ELEMENT_SET_NO":999,"REV_AT_EPOCH":28595,"BSTAR":-0.0013028315,"MEAN_MOTION_DOT":-4.49e-6,"MEAN_MOTION_DDOT":0},{"OBJECT_NAME":"ONEWEB-0039","OBJECT_ID":"2020-008R","EPOCH":"2025-12-13T06:40:49.281888","MEAN_MOTION":13.10371291,"ECCENTRICITY":0.00021147,"INCLINATION":87.8817,"RA_OF_ASC_NODE":73.3215,"ARG_OF_PERICENTER":113.0736,"MEAN_ANOMALY":247.0615,"EPHEMERIS_TYPE":0,"CLASSIFICATION_TYPE":"U","NORAD_CAT_ID":45146,"ELEMENT_SET_NO":999,"REV_AT_EPOCH":28381,"BSTAR":-0.00077020214,"MEAN_MOTION_DOT":-2.56e-6,"MEAN_MOTION_DDOT":0},{"OBJECT_NAME":"ONEWEB-0040","OBJECT_ID":"2020-008S","EPOCH":"2025-12-13T06:31:15.736224","MEAN_MOTION":13.10371672,"ECCENTRICITY":0.00017227,"INCLINATION":87.8805,"RA_OF_ASC_NODE":73.3485,"ARG_OF_PERICENTER":104.3429,"MEAN_ANOMALY":255.789,"EPHEMERIS_TYPE":0,"CLASSIFICATION_TYPE":"U","NORAD_CAT_ID":45147,"ELEMENT_SET_NO":999,"REV_AT_EPOCH":28351,"BSTAR":-0.0017191985,"MEAN_MOTION_DOT":-5.87e-6,"MEAN_MOTION_DDOT":0},{"OBJECT_NAME":"ONEWEB-0043","OBJECT_ID":"2020-008U","EPOCH":"2025-12-13T06:33:39.068640","MEAN_MOTION":13.10372036,"ECCENTRICITY":0.00021651,"INCLINATION":87.8809,"RA_OF_ASC_NODE":73.3294,"ARG_OF_PERICENTER":115.4864,"MEAN_ANOMALY":244.6487,"EPHEMERIS_TYPE":0,"CLASSIFICATION_TYPE":"U","NORAD_CAT_ID":45149,"ELEMENT_SET_NO":999,"REV_AT_EPOCH":28383,"BSTAR":-0.001967813,"MEAN_MOTION_DOT":-6.74e-6,"MEAN_MOTION_DDOT":0},{"OBJECT_NAME":"ONEWEB-0044","OBJECT_ID":"2020-008V","EPOCH":"2025-12-13T07:14:18.937248","MEAN_MOTION":13.10374416,"ECCENTRICITY":0.00018274,"INCLINATION":87.8813,"RA_OF_ASC_NODE":73.3151,"ARG_OF_PERICENTER":111.4674,"MEAN_ANOMALY":248.6648,"EPHEMERIS_TYPE":0,"CLASSIFICATION_TYPE":"U","NORAD_CAT_ID":45150,"ELEMENT_SET_NO":999,"REV_AT_EPOCH":28413,"BSTAR":0.0013521423,"MEAN_MOTION_DOT":4.85e-6,"MEAN_MOTION_DDOT":0},{"OBJECT_NAME":"ONEWEB-0045","OBJECT_ID":"2020-008W","EPOCH":"2025-12-13T05:28:54.820992","MEAN_MOTION":13.11413277,"ECCENTRICITY":0.00018519,"INCLINATION":87.8878,"RA_OF_ASC_NODE":58.0763,"ARG_OF_PERICENTER":103.001,"MEAN_ANOMALY":257.1325,"EPHEMERIS_TYPE":0,"CLASSIFICATION_TYPE":"U","NORAD_CAT_ID":45151,"ELEMENT_SET_NO":999,"REV_AT_EPOCH":28603,"BSTAR":-0.0013343398,"MEAN_MOTION_DOT":-4.6e-6,"MEAN_MOTION_DDOT":0},{"OBJECT_NAME":"ONEWEB-0047","OBJECT_ID":"2020-008X","EPOCH":"2025-12-13T07:04:44.747904","MEAN_MOTION":13.10374771,"ECCENTRICITY":0.00017566,"INCLINATION":87.8807,"RA_OF_ASC_NODE":73.3254,"ARG_OF_PERICENTER":106.2045,"MEAN_ANOMALY":253.9276,"EPHEMERIS_TYPE":0,"CLASSIFICATION_TYPE":"U","NORAD_CAT_ID":45152,"ELEMENT_SET_NO":999,"REV_AT_EPOCH":28385,"BSTAR":0.00068870042,"MEAN_MOTION_DOT":2.53e-6,"MEAN_MOTION_DDOT":0},{"OBJECT_NAME":"ONEWEB-0048","OBJECT_ID":"2020-008Y","EPOCH":"2025-12-13T05:07:38.076096","MEAN_MOTION":13.103768,"ECCENTRICITY":0.00016045,"INCLINATION":87.881,"RA_OF_ASC_NODE":73.3694,"ARG_OF_PERICENTER":101.5703,"MEAN_ANOMALY":258.5604,"EPHEMERIS_TYPE":0,"CLASSIFICATION_TYPE":"U","NORAD_CAT_ID":45153,"ELEMENT_SET_NO":999,"REV_AT_EPOCH":28345,"BSTAR":-0.00026369965,"MEAN_MOTION_DOT":-7.9e-7,"MEAN_MOTION_DDOT":0},{"OBJECT_NAME":"ONEWEB-0049","OBJECT_ID":"2020-008Z","EPOCH":"2025-12-13T07:02:10.689792","MEAN_MOTION":13.10369994,"ECCENTRICITY":0.000156,"INCLINATION":87.8808,"RA_OF_ASC_NODE":73.3421,"ARG_OF_PERICENTER":122.2815,"MEAN_ANOMALY":237.8463,"EPHEMERIS_TYPE":0,"CLASSIFICATION_TYPE":"U","NORAD_CAT_ID":45154,"ELEMENT_SET_NO":999,"REV_AT_EPOCH":28368,"BSTAR":-2.3314179e-5,"MEAN_MOTION_DOT":5.0e-8,"MEAN_MOTION_DDOT":0},{"OBJECT_NAME":"ONEWEB-0051","OBJECT_ID":"2020-008AA","EPOCH":"2025-12-13T05:26:27.189312","MEAN_MOTION":13.11414478,"ECCENTRICITY":0.00017599,"INCLINATION":87.8854,"RA_OF_ASC_NODE":58.0977,"ARG_OF_PERICENTER":103.6506,"MEAN_ANOMALY":256.4818,"EPHEMERIS_TYPE":0,"CLASSIFICATION_TYPE":"U","NORAD_CAT_ID":45155,"ELEMENT_SET_NO":999,"REV_AT_EPOCH":28671,"BSTAR":-0.001268753,"MEAN_MOTION_DOT":-4.37e-6,"MEAN_MOTION_DDOT":0},{"OBJECT_NAME":"ONEWEB-0052","OBJECT_ID":"2020-008AB","EPOCH":"2025-12-13T06:53:58.538112","MEAN_MOTION":13.10377222,"ECCENTRICITY":0.00016517,"INCLINATION":87.8816,"RA_OF_ASC_NODE":73.3033,"ARG_OF_PERICENTER":123.6504,"MEAN_ANOMALY":236.4781,"EPHEMERIS_TYPE":0,"CLASSIFICATION_TYPE":"U","NORAD_CAT_ID":45156,"ELEMENT_SET_NO":999,"REV_AT_EPOCH":28359,"BSTAR":-0.00068614811,"MEAN_MOTION_DOT":-2.27e-6,"MEAN_MOTION_DDOT":0},{"OBJECT_NAME":"ONEWEB-0053","OBJECT_ID":"2020-008AC","EPOCH":"2025-12-13T06:28:52.263840","MEAN_MOTION":13.10371594,"ECCENTRICITY":0.000201,"INCLINATION":87.881,"RA_OF_ASC_NODE":73.354,"ARG_OF_PERICENTER":104.0287,"MEAN_ANOMALY":256.1063,"EPHEMERIS_TYPE":0,"CLASSIFICATION_TYPE":"U","NORAD_CAT_ID":45157,"ELEMENT_SET_NO":999,"REV_AT_EPOCH":28356,"BSTAR":-0.0013850775,"MEAN_MOTION_DOT":-4.71e-6,"MEAN_MOTION_DDOT":0},{"OBJECT_NAME":"ONEWEB-0054","OBJECT_ID":"2020-008AD","EPOCH":"2025-12-13T07:19:06.202560","MEAN_MOTION":13.1037384,"ECCENTRICITY":0.00015917,"INCLINATION":87.8809,"RA_OF_ASC_NODE":73.318,"ARG_OF_PERICENTER":106.0785,"MEAN_ANOMALY":254.0518,"EPHEMERIS_TYPE":0,"CLASSIFICATION_TYPE":"U","NORAD_CAT_ID":45158,"ELEMENT_SET_NO":999,"REV_AT_EPOCH":28368,"BSTAR":0.0016580807,"MEAN_MOTION_DOT":5.92e-6,"MEAN_MOTION_DDOT":0},{"OBJECT_NAME":"ONEWEB-0056","OBJECT_ID":"2020-008AE","EPOCH":"2025-12-13T06:51:35.260128","MEAN_MOTION":13.10376936,"ECCENTRICITY":0.00014834,"INCLINATION":87.8811,"RA_OF_ASC_NODE":73.3207,"ARG_OF_PERICENTER":110.1481,"MEAN_ANOMALY":249.9807,"EPHEMERIS_TYPE":0,"CLASSIFICATION_TYPE":"U","NORAD_CAT_ID":45159,"ELEMENT_SET_NO":999,"REV_AT_EPOCH":28383,"BSTAR":-0.00099224433,"MEAN_MOTION_DOT":-3.34e-6,"MEAN_MOTION_DDOT":0}]
