ONEWEB-0035             
1 45143U 20008N   25347.30575836  .00000624  00000+0  17514-2 0  9996
2 45143  87.8805  73.3414 0001601  99.6474 260.4834 13.10375027283597
ONEWEB-0036             
1 45144U 20008P   25347.29579433  .00000232  00000+0  62844-3 0  9994
2 45144  87.8817  73.3018 0001817 113.0160 247.1159 13.10375180284024
ONEWEB-0038             
1 45145U 20008Q   25347.23363028 -.00000449  00000+0 -13028-2 0  9991
2 45145  87.8868  58.0911 0003121  79.5663 280.5817 13.11415504285958
ONEWEB-0039             
1 45146U 20008R   25347.27834817 -.00000256  00000+0 -77020-3 0  9994
2 45146  87.8817  73.3215 0002114 113.0736 247.0615 13.10371291283816
ONEWEB-0040             
1 45147U 20008S   25347.27170991 -.00000587  00000+0 -17192-2 0  9991
2 45147  87.8805  73.3485 0001722 104.3429 255.7890 13.10371672283510
ONEWEB-0043             
1 45149U 20008U   25347.27336885 -.00000674  00000+0 -19678-2 0  9997
2 45149  87.8809  73.3294 0002165 115.4864 244.6487 13.10372036283831
ONEWEB-0044             
1 45150U 20008V   25347.30160807  .00000485  00000+0  13521-2 0  9991
2 45150  87.8813  73.3151 0001827 111.4674 248.6648 13.10374416284130
ONEWEB-0045             
1 45151U 20008W   25347.22841228 -.00000460  00000+0 -13343-2 0  9993
2 45151  87.8878  58.0763 0001851 103.0010 257.1325 13.11413277286037
ONEWEB-0047             
1 45152U 20008X   25347.29496236  .00000253  00000+0  68870-3 0  9990
2 45152  87.8807  73.3254 0001756 106.2045 253.9276 13.10374771283852
ONEWEB-0048             
1 45153U 20008Y   25347.21363514 -.00000079  00000+0 -26370-3 0  9992
2 45153  87.8810  73.3694 0001604 101.5703 258.5604 13.10376800283453
ONEWEB-0049             
1 45154U 20008Z   25347.29317928  .00000005  00000+0 -23314-4 0  9993
2 45154  87.8808  73.3421 0001560 122.2815 237.8463 13.10369994283688
ONEWEB-0051             
1 45155U 20008AA  25347.22670358 -.00000437  00000+0 -12688-2 0  9996
2 45155  87.8854  58.0977 0001759 103.6506 256.4818 13.11414478286713
ONEWEB-0052             
1 45156U 20008AB  25347.28748308 -.00000227  00000+0 -68615-3 0  9993
2 45156  87.8816  73.3033 0001651 123.6504 236.4781 13.10377222283590
ONEWEB-0053             
1 45157U 20008AC  25347.27004935 -.00000471  00000+0 -13851-2 0  9996
2 45157  87.8810  73.3540 0002010 104.0287 256.1063 13.10371594283564
ONEWEB-0054             
1 45158U 20008AD  25347.30493290  .00000592  00000+0  16581-2 0  9992
2 45158  87.8809  73.3180 0001591 106.0785 254.0518 13.10373840283682
ONEWEB-0056             
1 45159U 20008AE  25347.28582477 -.00000334  00000+0 -99224-3 0  9998
2 45159  87.8811  73.3207 0001483 110.1481 249.9807 13.10376936283835
